{"type": "FeatureCollection", "features": [ {"type": "Feature", "properties": {"norad_id": 41556, "name": "ZIYUAN 3-02 (ZY 3-02)", "group": "resource", "lat": 13.038684365137813, "lon": -109.91767869447695, "alt_km": 498.83432063665623, "timestamp": "2025-12-20T07:33:50.460972+00:00", "meta": {"OBJECT_NAME": "ZIYUAN 3-02 (ZY 3-02)", "OBJECT_ID": "2016-033A", "EPOCH": "2025-12-19T22:56:19.632192", "MEAN_MOTION": 15.21151619, "ECCENTRICITY": 0.00110081, "INCLINATION": 97.4041, "RA_OF_ASC_NODE": 68.0033, "ARG_OF_PERICENTER": 219.0963, "MEAN_ANOMALY": 140.9478, "EPHEMERIS_TYPE": 0, "CLASSIFICATION_TYPE": "U", "NORAD_CAT_ID": 41556, "ELEMENT_SET_NO": 999, "REV_AT_EPOCH": 53073, "BSTAR": 0.00023641888, "MEAN_MOTION_DOT": 5.204e-05, "MEAN_MOTION_DDOT": 0}, "tle": {"line1": "1 41556U 16033A   25353.95578278  .00005204  00000+0  23642-3 0  9993", "line2": "2 41556  97.4041  68.0033 0011008 219.0963 140.9478 15.21151619530731"}}, "geometry": {"type": "Point", "coordinates": [-109.91767869447695, 13.038684365137813]}}, {"type": "Feature", "properties": {"norad_id": 41599, "name": "CARTOSAT-2C", "group": "resource", "lat": 52.97019640145569, "lon": 41.462384117042376, "alt_km": 495.9999844217573, "timestamp": "2025-12-20T07:33:50.460982+00:00", "meta": {"OBJECT_NAME": "CARTOSAT-2C", "OBJECT_ID": "2016-040A", "EPOCH": "2025-12-19T23:25:30.772704", "MEAN_MOTION": 15.19173655, "ECCENTRICITY": 0.00111001, "INCLINATION": 97.4763, "RA_OF_ASC_NODE": 51.1521, "ARG_OF_PERICENTER": 40.663, "MEAN_ANOMALY": 319.5431, "EPHEMERIS_TYPE": 0, "CLASSIFICATION_TYPE": "U", "NORAD_CAT_ID": 41599, "ELEMENT_SET_NO": 999, "REV_AT_EPOCH": 52650, "BSTAR": 0.00010786039, "MEAN_MOTION_DOT": 2.202e-05, "MEAN_MOTION_DDOT": 0}, "tle": {"line1": "1 41599U 16040A   25353.97605061  .00002202  00000+0  10786-3 0  9991", "line2": "2 41599  97.4763  51.1521 0011100  40.6630 319.5431 15.19173655526500"}}, "geometry": {"type": "Point", "coordinates": [41.462384117042376, 52.97019640145569]}}, {"type": "Feature", "properties": {"norad_id": 41601, "name": "SKYSAT-C1", "group": "resource", "lat": 64.3648559258027, "lon": -134.30305157575134, "alt_km": 462.1118983472443, "timestamp": "2025-12-20T07:33:50.460993+00:00", "meta": {"OBJECT_NAME": "SKYSAT-C1", "OBJECT_ID": "2016-040C", "EPOCH": "2025-12-19T13:49:47.529120", "MEAN_MOTION": 15.32708118, "ECCENTRICITY": 0.000158, "INCLINATION": 96.9813, "RA_OF_ASC_NODE": 30.2048, "ARG_OF_PERICENTER": 351.0695, "MEAN_ANOMALY": 9.052, "EPHEMERIS_TYPE": 0, "CLASSIFICATION_TYPE": "U", "NORAD_CAT_ID": 41601, "ELEMENT_SET_NO": 999, "REV_AT_EPOCH": 53032, "BSTAR": 0.00021842, "MEAN_MOTION_DOT": 6.827e-05, "MEAN_MOTION_DDOT": 0}, "tle": {"line1": "1 41601U 16040C   25353.57624455  .00006827  00000+0  21842-3 0  9991", "line2": "2 41601  96.9813  30.2048 0001580 351.0695   9.0520 15.32708118530325"}}, "geometry": {"type": "Point", "coordinates": [-134.30305157575134, 64.3648559258027]}}, {"type": "Feature", "properties": {"norad_id": 41603, "name": "LAPAN-A3", "group": "resource", "lat": -48.66479270972066, "lon": 163.4000785828819, "alt_km": 476.2617623234428, "timestamp": "2025-12-20T07:33:50.461004+00:00", "meta": {"OBJECT_NAME": "LAPAN-A3", "OBJECT_ID": "2016-040E", "EPOCH": "2025-12-19T22:43:33.398112", "MEAN_MOTION": 15.31605971, "ECCENTRICITY": 0.00089906, "INCLINATION": 97.1423, "RA_OF_ASC_NODE": 351.241, "ARG_OF_PERICENTER": 304.6683, "MEAN_ANOMALY": 55.3711, "EPHEMERIS_TYPE": 0, "CLASSIFICATION_TYPE": "U", "NORAD_CAT_ID": 41603, "ELEMENT_SET_NO": 999, "REV_AT_EPOCH": 52736, "BSTAR": 9.1311338e-05, "MEAN_MOTION_DOT": 2.715e-05, "MEAN_MOTION_DDOT": 0}, "tle": {"line1": "1 41603U 16040E   25353.94691433  .00002715  00000+0  91311-4 0  9995", "line2": "2 41603  97.1423 351.2410 0008990 304.6683  55.3711 15.31605971527367"}}, "geometry": {"type": "Point", "coordinates": [163.4000785828819, -48.66479270972066]}}, {"type": "Feature", "properties": {"norad_id": 41604, "name": "BIROS", "group": "resource", "lat": -54.599603205058166, "lon": -163.9882856538645, "alt_km": 302.80484678530865, "timestamp": "2025-12-20T07:33:50.461015+00:00", "meta": {"OBJECT_NAME": "BIROS", "OBJECT_ID": "2016-040F", "EPOCH": "2025-12-19T01:55:23.148192", "MEAN_MOTION": 15.92127149, "ECCENTRICITY": 0.00035441, "INCLINATION": 97.0685, "RA_OF_ASC_NODE": 24.7778, "ARG_OF_PERICENTER": 134.1983, "MEAN_ANOMALY": 225.9584, "EPHEMERIS_TYPE": 0, "CLASSIFICATION_TYPE": "U", "NORAD_CAT_ID": 41604, "ELEMENT_SET_NO": 999, "REV_AT_EPOCH": 52973, "BSTAR": 0.00053351864, "MEAN_MOTION_DOT": 0.00176218, "MEAN_MOTION_DDOT": 1.3459503e-05}, "tle": {"line1": "1 41604U 16040F   25353.08012903  .00176218  13460-4  53352-3 0  9991", "line2": "2 41604  97.0685  24.7778 0003544 134.1983 225.9584 15.92127149529734"}}, "geometry": {"type": "Point", "coordinates": [-163.9882856538645, -54.599603205058166]}}, {"type": "Feature", "properties": {"norad_id": 41727, "name": "GAOFEN-3", "group": "resource", "lat": 80.87322702945349, "lon": -113.27033048916928, "alt_km": 743.0460535304846, "timestamp": "2025-12-20T07:33:50.461025+00:00", "meta": {"OBJECT_NAME": "GAOFEN-3", "OBJECT_ID": "2016-049A", "EPOCH": "2025-12-19T22:48:23.706432", "MEAN_MOTION": 14.42215134, "ECCENTRICITY": 0.00012314, "INCLINATION": 98.4032, "RA_OF_ASC_NODE": 359.4268, "ARG_OF_PERICENTER": 58.0077, "MEAN_ANOMALY": 302.1232, "EPHEMERIS_TYPE": 0, "CLASSIFICATION_TYPE": "U", "NORAD_CAT_ID": 41727, "ELEMENT_SET_NO": 999, "REV_AT_EPOCH": 49281, "BSTAR": -9.97199e-07, "MEAN_MOTION_DOT": -4.7e-07, "MEAN_MOTION_DDOT": 0}, "tle": {"line1": "1 41727U 16049A   25353.95027438 -.00000047  00000+0 -99720-6 0  9992", "line2": "2 41727  98.4032 359.4268 0001231  58.0077 302.1232 14.42215134492814"}}, "geometry": {"type": "Point", "coordinates": [-113.27033048916928, 80.87322702945349]}}, {"type": "Feature", "properties": {"norad_id": 41771, "name": "SKYSAT-C4", "group": "resource", "lat": -45.69932652768313, "lon": 26.301812061510876, "alt_km": 447.1166823286694, "timestamp": "2025-12-20T07:33:50.461035+00:00", "meta": {"OBJECT_NAME": "SKYSAT-C4", "OBJECT_ID": "2016-058B", "EPOCH": "2025-12-19T00:37:25.370976", "MEAN_MOTION": 15.42424103, "ECCENTRICITY": 0.00020919, "INCLINATION": 96.9363, "RA_OF_ASC_NODE": 17.9086, "ARG_OF_PERICENTER": 130.2828, "MEAN_ANOMALY": 229.8603, "EPHEMERIS_TYPE": 0, "CLASSIFICATION_TYPE": "U", "NORAD_CAT_ID": 41771, "ELEMENT_SET_NO": 999, "REV_AT_EPOCH": 51764, "BSTAR": 0.00028649124, "MEAN_MOTION_DOT": 0.00012311, "MEAN_MOTION_DDOT": 0}, "tle": {"line1": "1 41771U 16058B   25353.02598809  .00012311  00000+0  28649-3 0  9998", "line2": "2 41771  96.9363  17.9086 0002091 130.2828 229.8603 15.42424103517644"}}, "geometry": {"type": "Point", "coordinates": [26.301812061510876, -45.69932652768313]}}, {"type": "Feature", "properties": {"norad_id": 41772, "name": "SKYSAT-C5", "group": "resource", "lat": 3.810351659030633, "lon": 37.276858359594996, "alt_km": 467.2543011516491, "timestamp": "2025-12-20T07:33:50.461046+00:00", "meta": {"OBJECT_NAME": "SKYSAT-C5", "OBJECT_ID": "2016-058C", "EPOCH": "2025-12-19T20:35:18.291840", "MEAN_MOTION": 15.33996702, "ECCENTRICITY": 0.00037731, "INCLINATION": 97.0747, "RA_OF_ASC_NODE": 37.3126, "ARG_OF_PERICENTER": 258.4024, "MEAN_ANOMALY": 101.6796, "EPHEMERIS_TYPE": 0, "CLASSIFICATION_TYPE": "U", "NORAD_CAT_ID": 41772, "ELEMENT_SET_NO": 999, "REV_AT_EPOCH": 51625, "BSTAR": 0.00020311222, "MEAN_MOTION_DOT": 6.607e-05, "MEAN_MOTION_DDOT": 0}, "tle": {"line1": "1 41772U 16058C   25353.85785060  .00006607  00000+0  20311-3 0  9996", "line2": "2 41772  97.0747  37.3126 0003773 258.4024 101.6796 15.33996702516258"}}, "geometry": {"type": "Point", "coordinates": [37.276858359594996, 3.810351659030633]}}, {"type": "Feature", "properties": {"norad_id": 41773, "name": "SKYSAT-C2", "group": "resource", "lat": 75.57895217625182, "lon": -132.7770961805017, "alt_km": 446.5664805410406, "timestamp": "2025-12-20T07:33:50.461057+00:00", "meta": {"OBJECT_NAME": "SKYSAT-C2", "OBJECT_ID": "2016-058D", "EPOCH": "2025-12-18T23:52:40.992960", "MEAN_MOTION": 15.37407901, "ECCENTRICITY": 0.00035522, "INCLINATION": 97.0351, "RA_OF_ASC_NODE": 17.257, "ARG_OF_PERICENTER": 17.3368, "MEAN_ANOMALY": 342.7999, "EPHEMERIS_TYPE": 0, "CLASSIFICATION_TYPE": "U", "NORAD_CAT_ID": 41773, "ELEMENT_SET_NO": 999, "REV_AT_EPOCH": 51732, "BSTAR": 0.0002611674, "MEAN_MOTION_DOT": 9.504e-05, "MEAN_MOTION_DDOT": 0}, "tle": {"line1": "1 41773U 16058D   25352.99491890  .00009504  00000+0  26117-3 0  9995", "line2": "2 41773  97.0351  17.2570 0003552  17.3368 342.7999 15.37407901517322"}}, "geometry": {"type": "Point", "coordinates": [-132.7770961805017, 75.57895217625182]}}, {"type": "Feature", "properties": {"norad_id": 41774, "name": "SKYSAT-C3", "group": "resource", "lat": 52.901597822014416, "lon": -143.03728213011095, "alt_km": 426.29026089124545, "timestamp": "2025-12-20T07:33:50.461067+00:00", "meta": {"OBJECT_NAME": "SKYSAT-C3", "OBJECT_ID": "2016-058E", "EPOCH": "2025-12-19T20:08:06.036864", "MEAN_MOTION": 15.44638022, "ECCENTRICITY": 0.00019194, "INCLINATION": 96.9286, "RA_OF_ASC_NODE": 27.2551, "ARG_OF_PERICENTER": 108.1196, "MEAN_ANOMALY": 252.0263, "EPHEMERIS_TYPE": 0, "CLASSIFICATION_TYPE": "U", "NORAD_CAT_ID": 41774, "ELEMENT_SET_NO": 999, "REV_AT_EPOCH": 51835, "BSTAR": 0.00029927436, "MEAN_MOTION_DOT": 0.00013863, "MEAN_MOTION_DDOT": 0}, "tle": {"line1": "1 41774U 16058E   25353.83895876  .00013863  00000+0  29927-3 0  9997", "line2": "2 41774  96.9286  27.2551 0001919 108.1196 252.0263 15.44638022518350"}}, "geometry": {"type": "Point", "coordinates": [-143.03728213011095, 52.901597822014416]}}]}